start=new Date('2022-07-28T00:00:00.000Z').valueOf();
sats=[{"MEAN_MOTION_DDOT":"0.0000000000000","TIME_SYSTEM":"UTC","ECCENTRICITY":"0.00018420","TLE_LINE2":"2 47586  53.0535 211.7392 0001842  61.2090 298.9083 15.06387556 81410","EPHEMERIS_TYPE":"0","MEAN_ANOMALY":"298.9083","LAUNCH_DATE":"2021-02-04","CENTER_NAME":"EARTH","PERIAPSIS":"545.976","CLASSIFICATION_TYPE":"U","COUNTRY_CODE":"US","OBJECT_TYPE":"PAYLOAD","OBJECT_NAME":"STARLINK-1990","INCLINATION":"53.0535","APOAPSIS":"548.527","FILE":"3523323","SITE":"AFETR","MEAN_MOTION_DOT":"-0.00001231","EPOCH":"2022-07-27T17:00:57.780576","OBJECT_ID":"2021-009AQ","MEAN_ELEMENT_THEORY":"SGP4","BSTAR":"-0.00006377800000","REV_AT_EPOCH":"8141","DECAY_DATE":null,"SEMIMAJOR_AXIS":"6925.387","RA_OF_ASC_NODE":"211.7392","ELEMENT_SET_NO":"999","REF_FRAME":"TEME","GP_ID":"208998126","NORAD_CAT_ID":"47586","ARG_OF_PERICENTER":"61.2090","RCS_SIZE":"LARGE","MEAN_MOTION":"15.06387556","TLE_LINE1":"1 47586U 21009AQ  22208.70900209 -.00001231  00000-0 -63778-4 0  9997","PERIOD":"95.593"},{"OBJECT_NAME":"STARLINK-1991","COUNTRY_CODE":"US","CLASSIFICATION_TYPE":"U","OBJECT_TYPE":"PAYLOAD","PERIAPSIS":"546.045","FILE":"3523323","INCLINATION":"53.0542","APOAPSIS":"548.398","EPHEMERIS_TYPE":"0","MEAN_ANOMALY":"299.0727","TIME_SYSTEM":"UTC","MEAN_MOTION_DDOT":"0.0000000000000","TLE_LINE2":"2 47587  53.0542 182.0616 0001699  61.0433 299.0727 15.06397469 81823","ECCENTRICITY":"0.00016990","LAUNCH_DATE":"2021-02-04","CENTER_NAME":"EARTH","RCS_SIZE":"LARGE","ARG_OF_PERICENTER":"61.0433","MEAN_MOTION":"15.06397469","PERIOD":"95.592","TLE_LINE1":"1 47587U 21009AR  22208.63804729 -.00000132  00000-0  10073-4 0  9998","REV_AT_EPOCH":"8182","BSTAR":"0.00001007300000","MEAN_ELEMENT_THEORY":"SGP4","DECAY_DATE":null,"SITE":"AFETR","EPOCH":"2022-07-27T15:18:47.285856","MEAN_MOTION_DOT":"-0.00000132","OBJECT_ID":"2021-009AR","NORAD_CAT_ID":"47587","GP_ID":"208997884","RA_OF_ASC_NODE":"182.0616","SEMIMAJOR_AXIS":"6925.356","REF_FRAME":"TEME","ELEMENT_SET_NO":"999"},{"CENTER_NAME":"EARTH","LAUNCH_DATE":"2021-02-04","ECCENTRICITY":"0.00017100","TLE_LINE2":"2 47588  53.0538 191.4826 0001710  68.1607 291.9564 15.06405564 81704","MEAN_MOTION_DDOT":"0.0000000000000","TIME_SYSTEM":"UTC","MEAN_ANOMALY":"291.9564","EPHEMERIS_TYPE":"0","APOAPSIS":"548.381","INCLINATION":"53.0538","FILE":"3523323","PERIAPSIS":"546.012","CLASSIFICATION_TYPE":"U","COUNTRY_CODE":"US","OBJECT_TYPE":"PAYLOAD","OBJECT_NAME":"STARLINK-1993","REF_FRAME":"TEME","ELEMENT_SET_NO":"999","SEMIMAJOR_AXIS":"6925.332","RA_OF_ASC_NODE":"191.4826","GP_ID":"208999128","NORAD_CAT_ID":"47588","MEAN_MOTION_DOT":"0.00001415","EPOCH":"2022-07-27T18:17:54.365856","OBJECT_ID":"2021-009AS","SITE":"AFETR","DECAY_DATE":null,"MEAN_ELEMENT_THEORY":"SGP4","BSTAR":"0.00011387000000","REV_AT_EPOCH":"8170","TLE_LINE1":"1 47588U 21009AS  22208.76243479  .00001415  00000-0  11387-3 0  9994","PERIOD":"95.592","RCS_SIZE":"LARGE","ARG_OF_PERICENTER":"68.1607","MEAN_MOTION":"15.06405564"},{"NORAD_CAT_ID":"47589","GP_ID":"208998884","REF_FRAME":"TEME","ELEMENT_SET_NO":"999","SEMIMAJOR_AXIS":"6925.336","RA_OF_ASC_NODE":"192.0112","DECAY_DATE":null,"BSTAR":"0.00007878700000","MEAN_ELEMENT_THEORY":"SGP4","REV_AT_EPOCH":"8168","EPOCH":"2022-07-27T15:33:23.637600","MEAN_MOTION_DOT":"0.00000892","OBJECT_ID":"2021-009AT","SITE":"AFETR","PERIOD":"95.592","TLE_LINE1":"1 47589U 21009AT  22208.64819025  .00000892  00000-0  78787-4 0  9994","RCS_SIZE":"LARGE","MEAN_MOTION":"15.06404081","ARG_OF_PERICENTER":"64.9230","CENTER_NAME":"EARTH","LAUNCH_DATE":"2021-02-04","MEAN_ANOMALY":"295.1960","EPHEMERIS_TYPE":"0","ECCENTRICITY":"0.00019400","TLE_LINE2":"2 47589  53.0541 192.0112 0001940  64.9230 295.1960 15.06404081 81681","MEAN_MOTION_DDOT":"0.0000000000000","TIME_SYSTEM":"UTC","FILE":"3523323","APOAPSIS":"548.545","INCLINATION":"53.0541","OBJECT_NAME":"STARLINK-1994","PERIAPSIS":"545.858","OBJECT_TYPE":"PAYLOAD","COUNTRY_CODE":"US","CLASSIFICATION_TYPE":"U"},{"PERIOD":"95.592","TLE_LINE1":"1 47590U 21009AU  22208.83801222  .00001151  00000-0  96191-4 0  9995","RCS_SIZE":"LARGE","MEAN_MOTION":"15.06395007","ARG_OF_PERICENTER":"55.2726","NORAD_CAT_ID":"47590","GP_ID":"208997634","ELEMENT_SET_NO":"999","REF_FRAME":"TEME","SEMIMAJOR_AXIS":"6925.364","RA_OF_ASC_NODE":"211.1665","DECAY_DATE":null,"MEAN_ELEMENT_THEORY":"SGP4","BSTAR":"0.00009619100000","REV_AT_EPOCH":"8143","EPOCH":"2022-07-27T20:06:44.255808","MEAN_MOTION_DOT":"0.00001151","OBJECT_ID":"2021-009AU","SITE":"AFETR","FILE":"3523323","APOAPSIS":"548.503","INCLINATION":"53.0536","OBJECT_NAME":"STARLINK-1995","PERIAPSIS":"545.955","CLASSIFICATION_TYPE":"U","COUNTRY_CODE":"US","OBJECT_TYPE":"PAYLOAD","CENTER_NAME":"EARTH","LAUNCH_DATE":"2021-02-04","MEAN_ANOMALY":"304.8436","EPHEMERIS_TYPE":"0","TLE_LINE2":"2 47590  53.0536 211.1665 0001840  55.2726 304.8436 15.06395007 81431","ECCENTRICITY":"0.00018400","MEAN_MOTION_DDOT":"0.0000000000000","TIME_SYSTEM":"UTC"},{"ARG_OF_PERICENTER":"51.8942","RCS_SIZE":"LARGE","MEAN_MOTION":"15.06402324","PERIOD":"95.592","TLE_LINE1":"1 47591U 21009AV  22208.64449329  .00002589  00000-0  19263-3 0  9991","DECAY_DATE":null,"REV_AT_EPOCH":"8168","MEAN_ELEMENT_THEORY":"SGP4","BSTAR":"0.00019263000000","EPOCH":"2022-07-27T15:28:04.220256","MEAN_MOTION_DOT":"0.00002589","OBJECT_ID":"2021-009AV","SITE":"AFETR","GP_ID":"208998377","NORAD_CAT_ID":"47591","ELEMENT_SET_NO":"999","REF_FRAME":"TEME","RA_OF_ASC_NODE":"192.0326","SEMIMAJOR_AXIS":"6925.341","OBJECT_NAME":"STARLINK-1996","OBJECT_TYPE":"PAYLOAD","COUNTRY_CODE":"US","CLASSIFICATION_TYPE":"U","PERIAPSIS":"545.981","FILE":"3523323","APOAPSIS":"548.432","INCLINATION":"53.0521","MEAN_ANOMALY":"308.2206","EPHEMERIS_TYPE":"0","TLE_LINE2":"2 47591  53.0521 192.0326 0001769  51.8942 308.2206 15.06402324 81680","ECCENTRICITY":"0.00017690","TIME_SYSTEM":"UTC","MEAN_MOTION_DDOT":"0.0000000000000","CENTER_NAME":"EARTH","LAUNCH_DATE":"2021-02-04"},{"SEMIMAJOR_AXIS":"6925.383","RA_OF_ASC_NODE":"211.5930","ELEMENT_SET_NO":"999","REF_FRAME":"TEME","NORAD_CAT_ID":"47592","GP_ID":"208998636","SITE":"AFETR","MEAN_MOTION_DOT":"-0.00001142","EPOCH":"2022-07-27T17:48:43.978752","OBJECT_ID":"2021-009AW","BSTAR":"-0.00005779100000","MEAN_ELEMENT_THEORY":"SGP4","REV_AT_EPOCH":"8141","DECAY_DATE":null,"TLE_LINE1":"1 47592U 21009AW  22208.74217568 -.00001142  00000-0 -57791-4 0  9996","PERIOD":"95.593","ARG_OF_PERICENTER":"67.4313","RCS_SIZE":"LARGE","MEAN_MOTION":"15.06388721","LAUNCH_DATE":"2021-02-04","CENTER_NAME":"EARTH","MEAN_MOTION_DDOT":"0.0000000000000","TIME_SYSTEM":"UTC","ECCENTRICITY":"0.00015390","TLE_LINE2":"2 47592  53.0545 211.5930 0001539  67.4313 292.6839 15.06388721 81418","EPHEMERIS_TYPE":"0","MEAN_ANOMALY":"292.6839","INCLINATION":"53.0545","APOAPSIS":"548.314","FILE":"3523323","PERIAPSIS":"546.182","CLASSIFICATION_TYPE":"U","COUNTRY_CODE":"US","OBJECT_TYPE":"PAYLOAD","OBJECT_NAME":"STARLINK-1997"},{"NORAD_CAT_ID":"47593","GP_ID":"208999377","SEMIMAJOR_AXIS":"6925.338","RA_OF_ASC_NODE":"211.7060","ELEMENT_SET_NO":"999","REF_FRAME":"TEME","BSTAR":"0.00007871500000","MEAN_ELEMENT_THEORY":"SGP4","REV_AT_EPOCH":"8141","DECAY_DATE":null,"SITE":"AFETR","OBJECT_ID":"2021-009AX","MEAN_MOTION_DOT":"0.00000891","EPOCH":"2022-07-27T17:06:15.310944","PERIOD":"95.592","TLE_LINE1":"1 47593U 21009AX  22208.71267721  .00000891  00000-0  78715-4 0  9997","RCS_SIZE":"LARGE","ARG_OF_PERICENTER":"57.9916","MEAN_MOTION":"15.06403583","LAUNCH_DATE":"2021-02-04","CENTER_NAME":"EARTH","EPHEMERIS_TYPE":"0","MEAN_ANOMALY":"302.1244","MEAN_MOTION_DDOT":"0.0000000000000","TIME_SYSTEM":"UTC","TLE_LINE2":"2 47593  53.0537 211.7060 0001760  57.9916 302.1244 15.06403583 81416","ECCENTRICITY":"0.00017600","FILE":"3523323","INCLINATION":"53.0537","APOAPSIS":"548.421","OBJECT_NAME":"STARLINK-1998","PERIAPSIS":"545.984","CLASSIFICATION_TYPE":"U","COUNTRY_CODE":"US","OBJECT_TYPE":"PAYLOAD"},{"MEAN_ANOMALY":"293.9566","EPHEMERIS_TYPE":"0","TLE_LINE2":"2 47594  53.0527 211.5741 0001530  66.1583 293.9566 15.06386829 81414","ECCENTRICITY":"0.00015300","MEAN_MOTION_DDOT":"0.0000000000000","TIME_SYSTEM":"UTC","CENTER_NAME":"EARTH","LAUNCH_DATE":"2021-02-04","OBJECT_NAME":"STARLINK-1999","PERIAPSIS":"546.194","COUNTRY_CODE":"US","CLASSIFICATION_TYPE":"U","OBJECT_TYPE":"PAYLOAD","FILE":"3523323","APOAPSIS":"548.314","INCLINATION":"53.0527","DECAY_DATE":null,"BSTAR":"0.00007501800000","MEAN_ELEMENT_THEORY":"SGP4","REV_AT_EPOCH":"8141","MEAN_MOTION_DOT":"0.00000836","EPOCH":"2022-07-27T17:54:03.435840","OBJECT_ID":"2021-009AY","SITE":"AFETR","NORAD_CAT_ID":"47594","GP_ID":"208998127","ELEMENT_SET_NO":"999","REF_FRAME":"TEME","SEMIMAJOR_AXIS":"6925.389","RA_OF_ASC_NODE":"211.5741","RCS_SIZE":"LARGE","ARG_OF_PERICENTER":"66.1583","MEAN_MOTION":"15.06386829","PERIOD":"95.593","TLE_LINE1":"1 47594U 21009AY  22208.74587310  .00000836  00000-0  75018-4 0  9992"},{"PERIAPSIS":"546.200","COUNTRY_CODE":"US","OBJECT_TYPE":"PAYLOAD","CLASSIFICATION_TYPE":"U","OBJECT_NAME":"STARLINK-2000","INCLINATION":"53.0526","APOAPSIS":"548.345","FILE":"3523323","MEAN_MOTION_DDOT":"0.0000000000000","TIME_SYSTEM":"UTC","TLE_LINE2":"2 47595  53.0526 211.6296 0001549  64.5293 295.5856 15.06380790 81411","ECCENTRICITY":"0.00015490","EPHEMERIS_TYPE":"0","MEAN_ANOMALY":"295.5856","LAUNCH_DATE":"2021-02-04","CENTER_NAME":"EARTH","ARG_OF_PERICENTER":"64.5293","RCS_SIZE":"LARGE","MEAN_MOTION":"15.06380790","TLE_LINE1":"1 47595U 21009AZ  22208.73113697  .00001109  00000-0  93366-4 0  9995","PERIOD":"95.593","SITE":"AFETR","EPOCH":"2022-07-27T17:32:50.234208","MEAN_MOTION_DOT":"0.00001109","OBJECT_ID":"2021-009AZ","MEAN_ELEMENT_THEORY":"SGP4","BSTAR":"0.00009336600000","REV_AT_EPOCH":"8141","DECAY_DATE":null,"SEMIMAJOR_AXIS":"6925.407","RA_OF_ASC_NODE":"211.6296","ELEMENT_SET_NO":"999","REF_FRAME":"TEME","GP_ID":"208997885","NORAD_CAT_ID":"47595"}];
